ONEWEB-0113             
1 48050U 21025J   22356.64986234 -.00000131  00000+0 -39396-3 0  9996
2 48050  87.9035 213.1050 0001675  89.2470 270.8851 13.13472717 86531
ONEWEB-0112             
1 48051U 21025K   22356.63716241 -.00000310  00000+0 -88316-3 0  9990
2 48051  87.9028 213.0674 0001484  85.3181 274.8118 13.13468838 86549
ONEWEB-0156             
1 48052U 21025L   22356.64773992 -.00000125  00000+0 -37799-3 0  9991
2 48052  87.9034 213.0875 0001483  83.9810 276.1488 13.13468869 86529
ONEWEB-0161             
1 48053U 21025M   22356.69641632 -.00000014  00000+0 -73081-4 0  9994
2 48053  87.9035 213.0596 0001393  75.0348 285.0935 13.13471302 86464
ONEWEB-0158             
1 48054U 21025N   22356.58426447  .00000185  00000+0  47243-3 0  9995
2 48054  87.9033 213.1076 0001745  95.0438 265.0891 13.13471013 86570
ONEWEB-0157             
1 48055U 21025P   22356.68371639  .00000293  00000+0  76724-3 0  9995
2 48055  87.9058 213.0456 0001305  73.1307 286.9965 13.13471572 86522
ONEWEB-0162             
1 48056U 21025Q   22356.64562254 -.00000218  00000+0 -63306-3 0  9998
2 48056  87.9030 213.0661 0001422  85.7542 274.3750 13.13468781 86498
ONEWEB-0155             
1 48057U 21025R   22356.59060737  .00000330  00000+0  86950-3 0  9995
2 48057  87.9113 213.0693 0001551  80.5674 279.5630 13.13472011 86628
ONEWEB-0149             
1 48058U 21025S   22356.68794573  .00000212  00000+0  54593-3 0  9995
2 48058  87.9031 213.0594 0001024  92.9536 267.1710 13.13471413 86444
ONEWEB-0148             
1 48059U 21025T   22356.65197120 -.00000065  00000+0 -21183-3 0  9995
2 48059  87.9033 213.0712 0000652  71.7053 288.4147 13.13472316 86560
ONEWEB-0160             
1 48060U 21025U   22356.59273395  .00000335  00000+0  88250-3 0  9995
2 48060  87.9032 213.0817 0002308 110.7614 249.3763 13.13471041 86502
ONEWEB-0163             
1 48061U 21025V   22356.57792199  .00000109  00000+0  26259-3 0  9992
2 48061  87.8968 213.0920 0001425  65.2448 294.8830 13.13471395 86628
ONEWEB-0159             
1 48062U 21025W   22356.64351181 -.00000260  00000+0 -74564-3 0  9995
2 48062  87.9035 213.0761 0001223  65.2868 294.8389 13.13468448 86556
ONEWEB-0164             
1 48063U 21025X   22356.70063633 -.00000128  00000+0 -38498-3 0  9994
2 48063  87.8945 213.0697 0001821  80.5891 279.5444 13.13468176 86543
ONEWEB-0167             
1 48064U 21025Y   22356.57895618  .00000029  00000+0  43739-4 0  9999
2 48064  87.9058 213.0679 0001336  70.2311 289.8962 13.13472215 86519
ONEWEB-0166             
1 48065U 21025Z   22356.67735918  .00000408  00000+0  10815-2 0  9995
2 48065  87.9027 213.0604 0001210  79.6877 280.4389 13.13472004 86601
ONEWEB-0151             
1 48066U 21025AA  22356.67948416  .00000358  00000+0  94631-3 0  9998
2 48066  87.9032 213.0607 0001805  81.8685 278.2649 13.13471162 86544
ONEWEB-0170             
1 48067U 21025AB  22356.68583618  .00000263  00000+0  68424-3 0  9995
2 48067  87.8968 213.0820 0002310  90.3302 269.8092 13.13466931 86504
ONEWEB-0168             
1 48068U 21025AC  22356.59484390  .00000483  00000+0  12889-2 0  9990
2 48068  87.9031 213.1094 0001492  80.6875 279.4423 13.13469028 86503
ONEWEB-0173             
1 48069U 21025AD  22356.58850651  .00000235  00000+0  60947-3 0  9991
2 48069  87.9035 213.1223 0001813  65.2428 294.8889 13.13471709 86744
ONEWEB-0171             
1 48070U 21025AE  22356.69852316 -.00000092  00000+0 -28800-3 0  9990
2 48070  87.9037 213.0592 0001332  78.6366 281.4912 13.13472584 86573
ONEWEB-0172             
1 48071U 21025AF  22356.60436665  .00000329  00000+0  86513-3 0  9993
2 48071  87.8992 213.0938 0001821  74.0787 286.0543 13.13468197 87451
ONEWEB-0174             
1 48072U 21025AG  22356.58635683 -.00000386  00000+0 -10926-2 0  9991
2 48072  87.9021 213.0957 0000797  91.7711 268.3509 13.13468410 86778
ONEWEB-0175             
1 48073U 21025AH  22356.69006402  .00000160  00000+0  40328-3 0  9993
2 48073  87.9029 213.0569 0002054  82.6560 277.4802 13.13472147 86448
ONEWEB-0177             
1 48074U 21025AJ  22356.62658868 -.00000190  00000+0 -55473-3 0  9998
2 48074  87.8986 213.0866 0001506  56.8266 303.3008 13.13467774 86624
ONEWEB-0178             
1 48075U 21025AK  22356.64457350 -.00000215  00000+0 -62345-3 0  9998
2 48075  87.9031 213.0692 0001408  72.0864 288.0419 13.13473637 86674
ONEWEB-0108             
1 48076U 21025AL  22356.68159100  .00000340  00000+0  89518-3 0  9993
2 48076  87.9030 213.0594 0001371  93.2163 266.9123 13.13468453 86601
ONEWEB-0169             
1 48077U 21025AM  22356.63504277 -.00000287  00000+0 -81969-3 0  9992
2 48077  87.8963 213.0817 0001185  94.5333 265.5932 13.13469684 85250
ONEWEB-0176             
1 48210U 21031A   22356.56497171 -.00000047  00000+0 -16066-3 0  9994
2 48210  87.9076 182.7809 0001482  81.8597 278.2701 13.14500988 81120
ONEWEB-0184             
1 48211U 21031B   22356.76795282 -.00000016  00000+0 -76509-4 0  9996
2 48211  87.9081 182.7133 0002751  79.3838 280.7601 13.14501004 81124
ONEWEB-0179             
1 48212U 21031C   22356.58399146  .00000192  00000+0  48378-3 0  9991
2 48212  87.9078 182.7494 0001325  74.4231 285.7045 13.14504491 81142
ONEWEB-0180             
1 48213U 21031D   22356.77004880 -.00000104  00000+0 -31520-3 0  9997
2 48213  87.9082 182.7086 0001349  82.1464 277.9819 13.14501164 81051
ONEWEB-0218             
1 48214U 21031E   22356.79120916 -.00000186  00000+0 -53676-3 0  9995
2 48214  87.9076 182.7153 0002651  66.7099 293.4310 13.14503808 81213
ONEWEB-0209             
1 48215U 21031F   22356.78061817 -.00000530  00000+0 -14641-2 0  9990
2 48215  87.9082 182.7470 0001398  81.4464 278.6824 13.14502331 81215
ONEWEB-0198             
1 48216U 21031G   22356.76583141 -.00000003  00000+0 -42240-4 0  9991
2 48216  87.9081 182.7617 0001869  68.5322 291.6006 13.14504515 81325
ONEWEB-0189             
1 48217U 21031H   22357.00687248 -.00000156  00000+0 -45394-3 0  9994
2 48217  87.9078 182.7011 0001766  67.3975 292.7342 13.14504361 81095
ONEWEB-0196             
1 48218U 21031J   22356.75738907  .00000308  00000+0  79681-3 0  9998
2 48218  87.9081 182.7343 0001656  84.5464 275.5855 13.14504485 81062
ONEWEB-0183             
1 48219U 21031K   22356.88211265  .00000035  00000+0  59389-4 0  9997
2 48219  87.9080 182.7293 0001356  86.7487 273.3798 13.14505247 81173
ONEWEB-0185             
1 48220U 21031L   22356.75843074  .00000015  00000+0  51316-5 0  9995
2 48220  87.9081 182.7309 0001342  84.0942 276.0341 13.14505349 81083
ONEWEB-0187             
1 48221U 21031M   22356.88526218 -.00000239  00000+0 -68025-3 0  9991
2 48221  87.9081 182.7303 0001299  82.0360 278.0917 13.14500195 81110
ONEWEB-0192             
1 48222U 21031N   22356.78273312 -.00000275  00000+0 -77588-3 0  9999
2 48222  87.9080 182.6969 0001713  80.6205 279.5118 13.14507002 81012
ONEWEB-0219             
1 48223U 21031P   22356.76371568  .00000051  00000+0  10446-3 0  9990
2 48223  87.9080 182.7388 0001310  81.9900 278.1378 13.14503852 81212
ONEWEB-0202             
1 48224U 21031Q   22356.59033643  .00000226  00000+0  57576-3 0  9990
2 48224  87.9080 182.7901 0002358  61.1403 298.9963 13.14504395 81173
ONEWEB-0204             
1 48225U 21031R   22356.57448702  .00000103  00000+0  24306-3 0  9994
2 48225  87.9077 182.8188 0001473 114.0180 246.1104 13.14501996 81069
ONEWEB-0205             
1 48226U 21031S   22356.98149844  .00000255  00000+0  65397-3 0  9998
2 48226  87.9081 182.6918 0001597  72.0598 288.0705 13.14507683 81147
ONEWEB-0206             
1 48227U 21031T   22356.57341960  .00000064  00000+0  13825-3 0  9994
2 48227  87.9078 182.7589 0001188  84.2939 275.8326 13.14501796 81039
ONEWEB-0182             
1 48228U 21031U   22356.56707845 -.00000090  00000+0 -27693-3 0  9991
2 48228  87.9080 182.8342 0001287  80.8330 279.2945 13.14501850 81247
ONEWEB-0186             
1 48229U 21031V   22356.88424130  .00000123  00000+0  29826-3 0  9995
2 48229  87.9081 182.6837 0001489  78.9952 281.1345 13.14504271 81233
ONEWEB-0181             
1 48230U 21031W   22356.78484816 -.00000456  00000+0 -12655-2 0  9995
2 48230  87.9080 182.7720 0001630  83.6585 276.4731 13.14502524 81076
ONEWEB-0188             
1 48231U 21031X   22356.82502587  .00000267  00000+0  68606-3 0  9993
2 48231  87.9082 182.7654 0001381  81.8447 278.2840 13.14505640 80987
ONEWEB-0220             
1 48232U 21031Y   22356.78697692 -.00000207  00000+0 -59385-3 0  9991
2 48232  87.9085 182.7313 0001233  72.9246 287.2018 13.14503772 81248
ONEWEB-0165             
1 48233U 21031Z   22356.58822527  .00000247  00000+0  63171-3 0  9997
2 48233  87.9080 182.7936 0001455  76.4507 283.6785 13.14501602 81173
ONEWEB-0199             
1 48234U 21031AA  22357.02799358  .00000003  00000+0 -26409-4 0  9998
2 48234  87.9078 182.6820 0001438  80.5848 279.5444 13.14505335 81136
ONEWEB-0203             
1 48235U 21031AB  22357.01742297 -.00000156  00000+0 -45488-3 0  9995
2 48235  87.9080 182.6799 0001996  89.5303 270.6055 13.14500454 81147
ONEWEB-0197             
1 48236U 21031AC  22356.77640159 -.00000205  00000+0 -58696-3 0  9992
2 48236  87.9081 182.7372 0001539  83.5680 276.5625 13.14504578 81028
ONEWEB-0194             
1 48237U 21031AD  22356.59246238  .00000267  00000+0  68659-3 0  9999
2 48237  87.9080 182.7636 0001897  97.3411 262.7934 13.14504154 81179
ONEWEB-0193             
1 48238U 21031AE  22356.76160110  .00000026  00000+0  36884-4 0  9992
2 48238  87.9082 182.7405 0001738  81.6709 278.4618 13.14504505 81146
ONEWEB-0191             
1 48239U 21031AF  22356.61992760 -.00000096  00000+0 -29295-3 0  9997
2 48239  87.9080 182.7500 0001704  88.8100 271.3225 13.14501541 80982
ONEWEB-0195             
1 48240U 21031AG  22356.82611304  .00000210  00000+0  53090-3 0  9990
2 48240  87.9082 182.7034 0001735  69.1121 291.0195 13.14500618 80997
